BEIDOU-3 G3             
1 45807U 20040A   26117.01504794 -.00000362  00000+0  00000+0 0  9997
2 45807   2.3237  67.2979 0003763 329.8404 293.8276  1.00270278 21559
GALAXY 30 (G-30)        
1 46114U 20056C   26117.03966138  .00000000  00000+0  00000+0 0  9990
2 46114   0.0126 236.3465 0002527 172.8147  55.1468  1.00271333 20788
QZS-1R (MICHIBIKI-1R)   
1 49336U 21096A   26117.22127906 -.00000237  00000+0  00000+0 0  9990
2 49336  37.3604  80.3327 0751435 270.8549  79.3818  1.00272987 16495
QZS-6 (MICHIBIKI-6)     
1 62876U 25023A   26117.19191774  .00000000  00000+0  00000+0 0  9995
2 62876   0.0139  72.0745 0002713 334.0586 328.6256  1.00271474  4441
